NORAD_CAT_ID,OBJECT_NAME,OBJECT_TYPE,EPOCH,MEAN_MOTION,ECCENTRICITY,INCLINATION,RA_OF_ASC_NODE,ARG_OF_PERICENTER,MEAN_ANOMALY,BSTAR,MEAN_MOTION_DOT,MEAN_MOTION_DDOT,TLE_LINE0,TLE_LINE1,TLE_LINE2,SEMIMAJOR_AXIS,PERIOD,APOGEE,PERIGEE,DECAYED
52295.0,STARLINK-3765,PAYLOAD,2023-11-12 16:26:56,15.08831025,0.0001303,53.217,305.9585,90.3785,269.7356,-1.1915e-06,-3.07e-06,0.0,0 STARLINK-3765,1 52295U 22041AL  23316.68538143 -.00000307  00000-0 -11915-5 0  9999,2 52295  53.2170 305.9585 0001303  90.3785 269.7356 15.08831025 86484,6917.908,95.438,540.674,538.871,0.0
52295.0,STARLINK-3765,PAYLOAD,2023-11-13 03:34:38,15.08841569,0.0001291,53.2168,303.8774,91.2158,268.8982,0.00031216,4.684e-05,0.0,0 STARLINK-3765,1 52295U 22041AL  23317.14905954  .00004684  00000-0  31216-3 0  9993,2 52295  53.2168 303.8774 0001291  91.2158 268.8982 15.08841569 87770,6917.876,95.437,540.634,538.847,0.0
52295.0,STARLINK-3765,PAYLOAD,2023-11-13 08:20:47,15.08859336,0.0001313,53.2163,302.9855,95.4888,264.6254,0.00098162,0.00015377,0.0,0 STARLINK-3765,1 52295U 22041AL  23317.34777690  .00015377  00000-0  98162-3 0  9993,2 52295  53.2163 302.9855 0001313  95.4888 264.6254 15.08859336 87807,6917.821,95.436,540.595,538.778,0.0
52295.0,STARLINK-3765,PAYLOAD,2023-11-14 03:25:25,15.08853269,0.0001525,53.2161,299.4126,115.0044,245.1107,0.00022386,3.278e-05,0.0,0 STARLINK-3765,1 52295U 22041AL  23318.14265268  .00003278  00000-0  22386-3 0  9997,2 52295  53.2161 299.4126 0001525 115.0044 245.1107 15.08853269 87927,6917.84,95.437,540.76,538.65,0.0
52295.0,STARLINK-3765,PAYLOAD,2023-11-14 06:36:11,15.08851388,0.0001521,53.217,298.8214,99.5838,260.5326,0.00024733,3.652e-05,0.0,0 STARLINK-3765,1 52295U 22041AL  23318.27513370  .00003652  00000-0  24733-3 0  9995,2 52295  53.2170 298.8214 0001521  99.5838 260.5326 15.08851388 86722,6917.846,95.437,540.763,538.658,0.0
52295.0,STARLINK-3765,PAYLOAD,2023-11-14 16:08:32,15.08802421,0.0001698,53.2174,297.0395,94.1474,265.9712,-0.00066664,-0.00010871,0.0,0 STARLINK-3765,1 52295U 22041AL  23318.67259749 -.00010871  00000-0 -66664-3 0  9998,2 52295  53.2174 297.0395 0001698  94.1474 265.9712 15.08802421 88004,6917.995,95.44,541.035,538.686,0.0
52295.0,STARLINK-3765,PAYLOAD,2023-11-14 22:30:04,15.08825943,0.000114,53.218,295.8474,100.4082,259.7038,6.2886e-05,7.13e-06,0.0,0 STARLINK-3765,1 52295U 22041AL  23318.93755058  .00000713  00000-0  62886-4 0  9996,2 52295  53.2180 295.8474 0001140 100.4082 259.7038 15.08825943 86827,6917.923,95.438,540.577,539.0,0.0
52295.0,STARLINK-3765,PAYLOAD,2023-11-15 03:16:13,15.08837014,0.0001603,53.2173,294.9587,87.8471,272.2704,0.00047934,7.348e-05,0.0,0 STARLINK-3765,1 52295U 22041AL  23319.13627188  .00007348  00000-0  47934-3 0  9998,2 52295  53.2173 294.9587 0001603  87.8471 272.2704 15.08837014 88079,6917.89,95.438,540.863,538.646,0.0
52295.0,STARLINK-3765,PAYLOAD,2023-11-15 04:51:36,15.0884106,0.0001688,53.217,294.6599,90.6949,269.4236,0.00033124,4.988e-05,0.0,0 STARLINK-3765,1 52295U 22041AL  23319.20250989  .00004988  00000-0  33124-3 0  9990,2 52295  53.2170 294.6599 0001688  90.6949 269.4236 15.08841060 86860,6917.877,95.437,540.91,538.574,0.0
52295.0,STARLINK-3765,PAYLOAD,2023-11-15 22:20:51,15.08847026,0.0001781,53.2174,291.3894,89.7046,270.4151,0.00061976,9.591e-05,0.0,0 STARLINK-3765,1 52295U 22041AL  23319.93114994  .00009591  00000-0  61976-3 0  9996,2 52295  53.2174 291.3894 0001781  89.7046 270.4151 15.08847026 86975,6917.859,95.437,540.956,538.492,0.0
52295.0,STARLINK-3765,PAYLOAD,2023-11-16 07:53:09,15.08857738,0.0001751,53.2176,289.6042,92.0379,268.0814,0.00052681,8.11e-05,0.0,0 STARLINK-3765,1 52295U 22041AL  23320.32858344  .00008110  00000-0  52681-3 0  9994,2 52295  53.2176 289.6042 0001751  92.0379 268.0814 15.08857738 88258,6917.826,95.436,540.902,538.48,0.0
52295.0,STARLINK-3765,PAYLOAD,2023-11-17 02:57:46,15.08853621,0.0001823,53.2168,286.0342,113.2245,246.8939,0.00010649,1.408e-05,0.0,0 STARLINK-3765,1 52295U 22041AL  23321.12345693  .00001408  00000-0  10649-3 0  9992,2 52295  53.2168 286.0342 0001823 113.2245 246.8939 15.08853621 88373,6917.839,95.437,540.965,538.443,0.0
52295.0,STARLINK-3765,PAYLOAD,2023-11-17 07:43:56,15.08850942,0.0001762,53.2173,285.1421,110.88,249.2381,7.2329e-05,8.64e-06,0.0,0 STARLINK-3765,1 52295U 22041AL  23321.32217716  .00000864  00000-0  72329-4 0  9997,2 52295  53.2173 285.1421 0001762 110.8800 249.2381 15.08850942 87188,6917.847,95.437,540.931,538.493,0.0
52295.0,STARLINK-3765,PAYLOAD,2023-11-17 22:02:24,15.08840836,0.0001759,53.2177,282.4644,109.9889,250.1292,-0.00013121,-2.376e-05,0.0,0 STARLINK-3765,1 52295U 22041AL  23321.91834015 -.00002376  00000-0 -13121-3 0  9995,2 52295  53.2177 282.4644 0001759 109.9889 250.1292 15.08840836 87274,6917.878,95.438,540.96,538.526,0.0
52295.0,STARLINK-3765,PAYLOAD,2023-11-18 04:23:57,15.0884268,0.0001522,53.2179,281.2782,92.6739,267.4427,-5.0017e-05,-1.084e-05,0.0,0 STARLINK-3765,1 52295U 22041AL  23322.18330293 -.00001084  00000-0 -50017-4 0  9995,2 52295  53.2179 281.2782 0001522  92.6739 267.4427 15.08842680 88536,6917.872,95.437,540.79,538.684,0.0
52295.0,STARLINK-3765,PAYLOAD,2023-11-18 13:56:16,15.08843753,0.0001489,53.2179,279.4947,95.3534,264.7628,-7.5144e-05,-1.484e-05,0.0,0 STARLINK-3765,1 52295U 22041AL  23322.58074198 -.00001484  00000-0 -75144-4 0  9990,2 52295  53.2179 279.4947 0001489  95.3534 264.7628 15.08843753 87379,6917.869,95.437,540.764,538.704,0.0
52295.0,STARLINK-3765,PAYLOAD,2023-11-18 21:53:11,15.0884286,0.0001482,53.2178,278.0073,93.2046,266.9115,-5.4518e-05,-1.156e-05,0.0,0 STARLINK-3765,1 52295U 22041AL  23322.91194438 -.00001156  00000-0 -54518-4 0  9995,2 52295  53.2178 278.0073 0001482  93.2046 266.9115 15.08842860 87420,6917.872,95.437,540.762,538.711,0.0
52295.0,STARLINK-3765,PAYLOAD,2023-11-19 07:25:30,15.08846763,0.0001608,53.2179,276.224,109.4793,250.6373,9.0401e-05,1.151e-05,0.0,0 STARLINK-3765,1 52295U 22041AL  23323.30937746  .00001151  00000-0  90401-4 0  9990,2 52295  53.2179 276.2240 0001608 109.4793 250.6373 15.08846763 88700,6917.86,95.437,540.837,538.612,0.0
52295.0,STARLINK-3765,PAYLOAD,2023-11-19 13:47:02,15.0884552,0.0001532,53.2179,275.0344,100.463,259.6535,5.7217e-05,6.23e-06,0.0,0 STARLINK-3765,1 52295U 22041AL  23323.57433882  .00000623  00000-0  57217-4 0  9992,2 52295  53.2179 275.0344 0001532 100.4630 259.6535 15.08845520 87527,6917.864,95.437,540.788,538.669,0.0
52295.0,STARLINK-3765,PAYLOAD,2023-11-20 04:05:31,15.08842076,0.0001573,53.218,272.3583,93.7905,266.3267,0.00014747,2.06e-05,0.0,0 STARLINK-3765,1 52295U 22041AL  23324.17050022  .00002060  00000-0  14747-3 0  9997,2 52295  53.2180 272.3583 0001573  93.7905 266.3267 15.08842076 88833,6917.874,95.437,540.827,538.651,0.0
52295.0,STARLINK-3765,PAYLOAD,2023-11-20 05:40:54,15.08847051,0.0001603,53.2181,272.0611,94.9283,265.1892,0.00019582,2.83e-05,0.0,0 STARLINK-3765,1 52295U 22041AL  23324.23673708  .00002830  00000-0  19582-3 0  9993,2 52295  53.2181 272.0611 0001603  94.9283 265.1892 15.08847051 87624,6917.859,95.437,540.833,538.615,0.0
52295.0,STARLINK-3765,PAYLOAD,2023-11-21 05:31:40,15.08851821,0.0001627,53.2184,267.5998,91.8217,268.2961,0.00011614,1.561e-05,0.0,0 STARLINK-3765,1 52295U 22041AL  23325.23033410  .00001561  00000-0  11614-3 0  9992,2 52295  53.2184 267.5998 0001627  91.8217 268.2961 15.08851821 88995,6917.844,95.437,540.835,538.584,0.0
52295.0,STARLINK-3765,PAYLOAD,2023-11-22 03:47:04,15.0884619,0.0001629,53.2178,263.4366,94.5324,265.5854,6.0626e-05,6.77e-06,0.0,0 STARLINK-3765,1 52295U 22041AL  23326.15769623  .00000677  00000-0  60626-4 0  9991,2 52295  53.2178 263.4366 0001629  94.5324 265.5854 15.08846190 89134,6917.861,95.437,540.853,538.6,0.0
52295.0,STARLINK-3765,PAYLOAD,2023-11-23 02:02:28,15.08849203,0.000218,53.2185,259.2726,64.6465,295.4753,0.00011296,1.51e-05,0.0,0 STARLINK-3765,1 52295U 22041AL  23327.08505754  .00001510  00000-0  11296-3 0  9992,2 52295  53.2185 259.2726 0002180  64.6465 295.4753 15.08849203 88050,6917.852,95.437,541.225,538.209,0.0
52295.0,STARLINK-3765,PAYLOAD,2023-11-23 22:42:30,15.08835976,0.0001396,53.2175,255.4082,91.7194,268.3958,2.6757e-05,1.38e-06,0.0,0 STARLINK-3765,1 52295U 22041AL  23327.94618451  .00000138  00000-0  26757-4 0  9990,2 52295  53.2175 255.4082 0001396  91.7194 268.3958 15.08835976 88182,6917.893,95.438,540.723,538.792,0.0
52295.0,STARLINK-3765,PAYLOAD,2023-11-24 01:53:16,15.08836359,0.0001577,53.217,254.8142,104.1949,255.9218,2.3993e-05,9.4e-07,0.0,0 STARLINK-3765,1 52295U 22041AL  23328.07866402  .00000094  00000-0  23993-4 0  9996,2 52295  53.2170 254.8142 0001577 104.1949 255.9218 15.08836359 89420,6917.892,95.438,540.847,538.666,0.0
52295.0,STARLINK-3765,PAYLOAD,2023-11-24 22:33:17,15.08841755,0.0001477,53.2166,250.9499,106.9452,253.1702,0.00015042,2.107e-05,0.0,0 STARLINK-3765,1 52295U 22041AL  23328.93978440  .00002107  00000-0  15042-3 0  9999,2 52295  53.2166 250.9499 0001477 106.9452 253.1702 15.08841755 88338,6917.875,95.437,540.762,538.718,0.0
52295.0,STARLINK-3765,PAYLOAD,2023-11-25 01:44:03,15.08850243,0.000166,53.217,250.355,109.9773,250.1398,0.0001258,1.715e-05,0.0,0 STARLINK-3765,1 52295U 22041AL  23329.07226025  .00001715  00000-0  12580-3 0  9998,2 52295  53.2170 250.3550 0001660 109.9773 250.1398 15.08850243 89575,6917.849,95.437,540.862,538.566,0.0
52295.0,STARLINK-3765,PAYLOAD,2023-11-25 04:54:49,15.08860274,0.000165,53.2165,249.7572,107.6753,252.4419,0.00011573,1.555e-05,0.0,0 STARLINK-3765,1 52295U 22041AL  23329.20473473  .00001555  00000-0  11573-3 0  9997,2 52295  53.2165 249.7572 0001650 107.6753 252.4419 15.08860274 88378,6917.818,95.436,540.825,538.542,0.0
52295.0,STARLINK-3765,PAYLOAD,2023-11-25 22:24:03,15.08851279,0.0001522,53.2167,246.4834,98.0135,262.103,0.00028372,4.232e-05,0.0,0 STARLINK-3765,1 52295U 22041AL  23329.93337833  .00004232  00000-0  28372-3 0  9996,2 52295  53.2167 246.4834 0001522  98.0135 262.1030 15.08851279 88484,6917.846,95.437,540.764,538.658,0.0
